$$SOE
2460721.500000000, A.D. 2025-Feb-15 00:00:00.0000, 3.979425398994808E+08, 2.151281190866037E+08, 1.894238861060584E+07,
2460728.500000000, A.D. 2025-Feb-22 00:00:00.0000, 3.928550226809789E+08, 2.242016742630765E+08, 2.112462043503253E+07,
2460735.500000000, A.D. 2025-Mar-01 00:00:00.0000, 3.875620651425302E+08, 2.331580341284105E+08, 2.329580275529991E+07,
2460742.500000000, A.D. 2025-Mar-08 00:00:00.0000, 3.820665273787714E+08, 2.419925732581514E+08, 2.545480512950613E+07,
2460749.500000000, A.D. 2025-Mar-15 00:00:00.0000, 3.763713904455889E+08, 2.507007463877348E+08, 2.760050559638076E+07,
2460756.500000000, A.D. 2025-Mar-22 00:00:00.0000, 3.704797515920024E+08, 2.592780921977167E+08, 2.973179176871483E+07,
2460763.500000000, A.D. 2025-Mar-29 00:00:00.0000, 3.643948207439741E+08, 2.677202347456980E+08, 3.184756160529169E+07,
2460770.500000000, A.D. 2025-Apr-05 00:00:00.0000, 3.581199185702493E+08, 2.760228856770853E+08, 3.394672408614127E+07,
2460777.500000000, A.D. 2025-Apr-12 00:00:00.0000, 3.516584742079865E+08, 2.841818473139866E+08, 3.602819997459576E+07,
2460784.500000000, A.D. 2025-Apr-19 00:00:00.0000, 3.450140224659537E+08, 2.921930157373757E+08, 3.809092260984969E+07,
2460791.500000000, A.D. 2025-Apr-26 00:00:00.0000, 3.381902007825282E+08, 3.000523836562078E+08, 4.013383868714705E+07,
2460798.500000000, A.D. 2025-May-03 00:00:00.0000, 3.311907460579011E+08, 3.077560430795674E+08, 4.215590901543592E+07,
2460805.500000000, A.D. 2025-May-10 00:00:00.0000, 3.240194913948751E+08, 3.153001877976879E+08, 4.415610924936703E+07,
2460812.500000000, A.D. 2025-May-17 00:00:00.0000, 3.166803627908864E+08, 3.226811156283459E+08, 4.613343058782768E+07,
2460819.500000000, A.D. 2025-May-24 00:00:00.0000, 3.091773759613472E+08, 3.298952303722242E+08, 4.808688041768381E+07,
2460826.500000000, A.D. 2025-May-31 00:00:00.0000, 3.015146337189162E+08, 3.369390437866080E+08, 5.001548288903895E+07,
2460833.500000000, A.D. 2025-Jun-07 00:00:00.0000, 2.936963235145208E+08, 3.438091787794729E+08, 5.191827955623659E+07,
2460840.500000000, A.D. 2025-Jun-14 00:00:00.0000, 2.857267127798038E+08, 3.505023731540264E+08, 5.379433024579640E+07,
2460847.500000000, A.D. 2025-Jun-21 00:00:00.0000, 2.776101432929306E+08, 3.570154806333548E+08, 5.564271377212915E+07,
2460854.500000000, A.D. 2025-Jun-28 00:00:00.0000, 2.693510277047409E+08, 3.633454709308206E+08, 5.746252835826768E+07,
2460861.500000000, A.D. 2025-Jul-05 00:00:00.0000, 2.609538467152771E+08, 3.694894310209329E+08, 5.925289207621090E+07,
2460868.500000000, A.D. 2025-Jul-12 00:00:00.0000, 2.524231457150277E+08, 3.754445668047068E+08, 6.101294334977961E+07,
2460875.500000000, A.D. 2025-Jul-19 00:00:00.0000, 2.437635310864422E+08, 3.812082045950395E+08, 6.274184145541835E+07,
2460882.500000000, A.D. 2025-Jul-26 00:00:00.0000, 2.349796663820462E+08, 3.867777923664995E+08, 6.443876699702372E+07,
2460889.500000000, A.D. 2025-Aug-02 00:00:00.0000, 2.260762684510767E+08, 3.921509007922642E+08, 6.610292235061000E+07,
2460896.500000000, A.D. 2025-Aug-09 00:00:00.0000, 2.170581035446152E+08, 3.973252240546376E+08, 6.773353207552388E+07,
2460903.500000000, A.D. 2025-Aug-16 00:00:00.0000, 2.079299834825273E+08, 4.022985803667743E+08, 6.932984327995253E+07,
2460910.500000000, A.D. 2025-Aug-23 00:00:00.0000, 1.986967621807059E+08, 4.070689122228531E+08, 7.089112591508320E+07,
2460917.500000000, A.D. 2025-Aug-30 00:00:00.0000, 1.893633328730572E+08, 4.116342870917755E+08, 7.241667302589661E+07,
2460924.500000000, A.D. 2025-Sep-06 00:00:00.0000, 1.799346246150536E+08, 4.159928995549729E+08, 7.390580116993567E+07,
2460931.500000000, A.D. 2025-Sep-13 00:00:00.0000, 1.704155964002870E+08, 4.201430724057415E+08, 7.535785095395905E+07,
2460938.500000000, A.D. 2025-Sep-20 00:00:00.0000, 1.608112321659517E+08, 4.240832550713987E+08, 7.677218725517517E+07,
2460945.500000000, A.D. 2025-Sep-27 00:00:00.0000, 1.511265377529048E+08, 4.278120224764978E+08, 7.814819928597406E+07,
2460952.500000000, A.D. 2025-Oct-04 00:00:00.0000, 1.413665378101971E+08, 4.313280748894656E+08, 7.948530073192957E+07,
2460959.500000000, A.D. 2025-Oct-11 00:00:00.0000, 1.315362722755010E+08, 4.346302378124055E+08, 8.078292992078459E+07,
2460966.500000000, A.D. 2025-Oct-18 00:00:00.0000, 1.216407927197847E+08, 4.377174616428113E+08, 8.204054997441536E+07,
2460973.500000000, A.D. 2025-Oct-25 00:00:00.0000, 1.116851587000226E+08, 4.405888211214943E+08, 8.325764893220010E+07,
2460980.500000000, A.D. 2025-Nov-01 00:00:00.0000, 1.016744341631796E+08, 4.432435145857040E+08, 8.443373984371501E+07,
2460987.500000000, A.D. 2025-Nov-08 00:00:00.0000, 9.161368393947363E+07, 4.456808629997709E+08, 8.556836082531032E+07,
2460994.500000000, A.D. 2025-Nov-15 00:00:00.0000, 8.150797047595578E+07, 4.479003087087149E+08, 8.666107506256640E+07,
2461001.500000000, A.D. 2025-Nov-22 00:00:00.0000, 7.136235121608056E+07, 4.499014141393823E+08, 8.771147074016818E+07,
2461008.500000000, A.D. 2025-Nov-29 00:00:00.0000, 6.118187647547065E+07, 4.516838615891831E+08, 8.871916100665402E+07,
2461015.500000000, A.D. 2025-Dec-06 00:00:00.0000, 5.097158554064257E+07, 4.532474539698950E+08, 8.968378417191511E+07,
2461022.500000000, A.D. 2025-Dec-13 00:00:00.0000, 4.073650142615739E+07, 4.545921131373085E+08, 9.060500382174855E+07,
2461029.500000000, A.D. 2025-Dec-20 00:00:00.0000, 3.048162778370380E+07, 4.557178768347562E+08, 9.148250861342189E+07,
2461036.500000000, A.D. 2025-Dec-27 00:00:00.0000, 2.021194689208589E+07, 4.566248968478734E+08, 9.231601206342629E+07,
2461043.500000000, A.D. 2026-Jan-03 00:00:00.0000, 9.932417271098806E+06, 4.573134377586502E+08, 9.310525241119048E+07,
2461050.500000000, A.D. 2026-Jan-10 00:00:00.0000, -3.520289701114983E+05, 4.577838756238658E+08, 9.384999249373221E+07,
2461057.500000000, A.D. 2026-Jan-17 00:00:00.0000, -1.063648881694376E+07, 4.580366964914052E+08, 9.455001960338962E+07,
2461064.500000000, A.D. 2026-Jan-24 00:00:00.0000, -2.091609098666009E+07, 4.580724947825956E+08, 9.520514532449886E+07,
2461071.500000000, A.D. 2026-Jan-31 00:00:00.0000, -3.118599849465970E+07, 4.578919715386189E+08, 9.581520534744591E+07,
2461078.500000000, A.D. 2026-Feb-07 00:00:00.0000, -4.144141108720078E+07, 4.574959324788595E+08, 9.638005925088128E+07,
2461085.500000000, A.D. 2026-Feb-14 00:00:00.0000, -5.167756728676837E+07, 4.568852858607908E+08, 9.689959022864813E+07,
2461092.500000000, A.D. 2026-Feb-21 00:00:00.0000, -6.188974566223852E+07, 4.560610407233716E+08, 9.737370477407730E+07,
2461099.500000000, A.D. 2026-Feb-28 00:00:00.0000, -7.207326640826771E+07, 4.550243066729083E+08, 9.780233251658142E+07,
2461106.500000000, A.D. 2026-Mar-07 00:00:00.0000, -8.222349529093437E+07, 4.537762932651626E+08, 9.818542624055687E+07,
2461113.500000000, A.D. 2026-Mar-14 00:00:00.0000, -9.233584718422569E+07, 4.523183066519405E+08, 9.852296164137864E+07,
2461120.500000000, A.D. 2026-Mar-21 00:00:00.0000, -1.024057874168559E+08, 4.506517463943896E+08, 9.881493689305773E+07,
2461127.500000000, A.D. 2026-Mar-28 00:00:00.0000, -1.124288329391005E+08, 4.487781034772553E+08, 9.906137229734206E+07,
2461134.500000000, A.D. 2026-Apr-04 00:00:00.0000, -1.224005539132588E+08, 4.466989585618374E+08, 9.926230999148080E+07,
2461141.500000000, A.D. 2026-Apr-11 00:00:00.0000, -1.323165754544664E+08, 4.444159801207136E+08, 9.941781366090313E+07,
2461148.500000000, A.D. 2026-Apr-18 00:00:00.0000, -1.421725793631610E+08, 4.419309224508495E+08, 9.952796824252683E+07,
2461155.500000000, A.D. 2026-Apr-25 00:00:00.0000, -1.519643058035295E+08, 4.392456235829316E+08, 9.959287961641052E+07,
2461162.500000000, A.D. 2026-May-02 00:00:00.0000, -1.616875548971255E+08, 4.363620030597563E+08, 9.961267428090262E+07,
2461169.500000000, A.D. 2026-May-09 00:00:00.0000, -1.713381881071760E+08, 4.332820595190604E+08, 9.958749899454045E+07,
2461176.500000000, A.D. 2026-May-16 00:00:00.0000, -1.809121290367151E+08, 4.300078682202734E+08, 9.951752036141214E+07,
2461183.500000000, A.D. 2026-May-23 00:00:00.0000, -1.904053635912395E+08, 4.265415795394859E+08, 9.940292443933791E+07,
2461190.500000000, A.D. 2026-May-30 00:00:00.0000, -1.998139415872402E+08, 4.228854187561963E+08, 9.924391658884639E+07,
2461197.500000000, A.D. 2026-Jun-06 00:00:00.0000, -2.091339801248330E+08, 4.190416838619955E+08, 9.904072132537341E+07,
2461204.500000000, A.D. 2026-Jun-13 00:00:00.0000, -2.183616650598423E+08, 4.150127415915108E+08, 9.879358185494465E+07,
2461211.500000000, A.D. 2026-Jun-20 00:00:00.0000, -2.274932510794369E+08, 4.108010246053500E+08, 9.850275957933146E+07,
2461218.500000000, A.D. 2026-Jun-27 00:00:00.0000, -2.365250620809670E+08, 4.064090294895526E+08, 9.816853369929822E+07,
2461225.500000000, A.D. 2026-Jul-04 00:00:00.0000, -2.454534918546354E+08, 4.018393147988870E+08, 9.779120085250242E+07,
2461232.500000000, A.D. 2026-Jul-11 00:00:00.0000, -2.542750048172804E+08, 3.970944990134967E+08, 9.737107475177640E+07,
2461239.500000000, A.D. 2026-Jul-18 00:00:00.0000, -2.629861367062017E+08, 3.921772584361299E+08, 9.690848581732026E+07,
2461246.500000000, A.D. 2026-Jul-25 00:00:00.0000, -2.715834952103646E+08, 3.870903250342790E+08, 9.640378080083288E+07,
2461253.500000000, A.D. 2026-Aug-01 00:00:00.0000, -2.800637604926850E+08, 3.818364841807083E+08, 9.585732239335117E+07,
2461260.500000000, A.D. 2026-Aug-08 00:00:00.0000, -2.884236853902997E+08, 3.764185722580022E+08, 9.526948879432312E+07,
2461267.500000000, A.D. 2026-Aug-15 00:00:00.0000, -2.966600948797290E+08, 3.708394745788822E+08, 9.464067324088347E+07,
2461274.500000000, A.D. 2026-Aug-22 00:00:00.0000, -3.047698855705105E+08, 3.651021248452542E+08, 9.397128366738605E+07,
2461281.500000000, A.D. 2026-Aug-29 00:00:00.0000, -3.127500275188643E+08, 3.592095047759969E+08, 9.326174259363368E+07,
2461288.500000000, A.D. 2026-Sep-05 00:00:00.0000, -3.205975662281435E+08, 3.531646410370020E+08, 9.251248681185783E+07,
$$EOE